ORBCOMM FM20            
1 25416U 98046D   25297.95561096  .00001361  00000+0  49718-3 0  9993
2 25416  44.9946 286.6018 0002803 274.6453  85.4075 14.37506302422931
ORBCOMM FM16            
1 25417U 98046E   25298.00225065  .00002181  00000+0  74065-3 0  9998
2 25417  44.9930 276.2034 0005947 254.3482 105.6710 14.39320038422952
ORBCOMM FM15            
1 25418U 98046F   25297.94148239  .00001773  00000+0  61540-3 0  9998
2 25418  44.9967 282.0298 0005690 255.0101 105.0117 14.38950149422935
ORBCOMM FM14            
1 25419U 98046G   25297.99495090  .00001887  00000+0  64686-3 0  9994
2 25419  44.9955 279.6274 0004453 258.2179 101.8170 14.39348378422912
ORBCOMM FM13            
1 25420U 98046H   25297.94665249  .00001679  00000+0  59615-3 0  9991
2 25420  44.9979 289.1272 0005980 233.1060 126.9241 14.38018383421916
ORBCOMM FM21            
1 25475U 98053A   25297.63666249  .00001337  00000+0  48797-3 0  9996
2 25475  45.0098  16.3491 0002735 200.4703 159.6036 14.37639931415879
ORBCOMM FM22            
1 25476U 98053B   25297.57689282  .00001679  00000+0  58725-3 0  9993
2 25476  45.0082  10.4079 0004119 186.7224 173.3570 14.38774248415904
ORBCOMM FM23            
1 25477U 98053C   25297.61965489  .00001492  00000+0  53687-3 0  9990
2 25477  45.0099  18.3567 0003387 185.6247 174.4564 14.37859442416029
